[{"OBJECT_NAME":"CUAVA-2","OBJECT_ID":"2024-149BM","EPOCH":"2026-03-09T11:16:09.234912","MEAN_MOTION":15.33611708,"ECCENTRICITY":0.00056694,"INCLINATION":97.3769,"RA_OF_ASC_NODE":149.9859,"ARG_OF_PERICENTER":291.2139,"MEAN_ANOMALY":68.8497,"EPHEMERIS_TYPE":0,"CLASSIFICATION_TYPE":"U","NORAD_CAT_ID":60527,"ELEMENT_SET_NO":999,"REV_AT_EPOCH":8687,"BSTAR":0.00047570318,"MEAN_MOTION_DOT":0.000154,"MEAN_MOTION_DDOT":0},{"OBJECT_NAME":"CZ-4B R\/B","OBJECT_ID":"2004-035C","EPOCH":"2026-03-09T23:23:31.358400","MEAN_MOTION":15.2906998,"ECCENTRICITY":0.00309852,"INCLINATION":97.3501,"RA_OF_ASC_NODE":103.2135,"ARG_OF_PERICENTER":330.5139,"MEAN_ANOMALY":29.4353,"EPHEMERIS_TYPE":0,"CLASSIFICATION_TYPE":"U","NORAD_CAT_ID":28415,"ELEMENT_SET_NO":999,"REV_AT_EPOCH":17995,"BSTAR":0.00034109099,"MEAN_MOTION_DOT":9.691e-5,"MEAN_MOTION_DDOT":0}]
